{
  "type": "FeatureCollection",
  "features": [
    {
      "type": "Feature",
      "properties": {
        "norad_id": 43823,
        "name": "GEO-KOMPSAT-2A",
        "group": "weather",
        "lat": 0.0283263948519362,
        "lon": 127.63187536577074,
        "alt_km": 35785.92329470454,
        "timestamp": "2025-12-07T18:50:16.368200+00:00",
        "meta_object_name": "GEO-KOMPSAT-2A",
        "meta_object_id": "2018-100A",
        "meta_epoch": "2025-12-07T07:23:50.811072",
        "meta_mean_motion": 1.00271386,
        "meta_eccentricity": 2.497e-05,
        "meta_inclination": 0.0567,
        "meta_ra_of_asc_node": 118.5021,
        "meta_arg_of_pericenter": 80.0439,
        "meta_mean_anomaly": 117.0199,
        "meta_ephemeris_type": 0,
        "meta_classification_type": "U",
        "meta_norad_cat_id": 43823,
        "meta_element_set_no": 999,
        "meta_rev_at_epoch": 2570,
        "meta_bstar": 0,
        "meta_mean_motion_dot": -3.39e-06,
        "meta_mean_motion_ddot": 0,
        "tle_line1": "1 43823U 18100A   25341.30822698 -.00000339  00000+0  00000+0 0  9997",
        "tle_line2": "2 43823   0.0567 118.5021 0000249  80.0439 117.0199  1.00271386 25707"
      },
      "geometry": {
        "type": "Point",
        "coordinates": [
          127.63187536577074,
          0.0283263948519362
        ]
      }
    },
    {
      "type": "Feature",
      "properties": {
        "norad_id": 44387,
        "name": "METEOR-M2 2",
        "group": "weather",
        "lat": -3.7663202563192044,
        "lon": 140.8624405167041,
        "alt_km": 813.5775516070398,
        "timestamp": "2025-12-07T18:50:16.368220+00:00",
        "meta_object_name": "METEOR-M2 2",
        "meta_object_id": "2019-038A",
        "meta_epoch": "2025-12-07T06:10:34.223520",
        "meta_mean_motion": 14.24288065,
        "meta_eccentricity": 0.00010844,
        "meta_inclination": 98.8968,
        "meta_ra_of_asc_node": 320.9193,
        "meta_arg_of_pericenter": 159.2672,
        "meta_mean_anomaly": 200.8551,
        "meta_ephemeris_type": 0,
        "meta_classification_type": "U",
        "meta_norad_cat_id": 44387,
        "meta_element_set_no": 999,
        "meta_rev_at_epoch": 33397,
        "meta_bstar": 0.00016353208,
        "meta_mean_motion_dot": 3.32e-06,
        "meta_mean_motion_ddot": 0,
        "tle_line1": "1 44387U 19038A   25341.25734055  .00000332  00000+0  16353-3 0  9991",
        "tle_line2": "2 44387  98.8968 320.9193 0001084 159.2672 200.8551 14.24288065333974"
      },
      "geometry": {
        "type": "Point",
        "coordinates": [
          140.8624405167041,
          -3.7663202563192044
        ]
      }
    },
    {
      "type": "Feature",
      "properties": {
        "norad_id": 47719,
        "name": "ARKTIKA-M 1",
        "group": "weather",
        "lat": 62.377676284629906,
        "lon": 159.67543871581518,
        "alt_km": 38643.3843268484,
        "timestamp": "2025-12-07T18:50:16.368235+00:00",
        "meta_object_name": "ARKTIKA-M 1",
        "meta_object_id": "2021-016A",
        "meta_epoch": "2025-12-01T02:41:41.634816",
        "meta_mean_motion": 2.00613156,
        "meta_eccentricity": 0.71974708,
        "meta_inclination": 63.1756,
        "meta_ra_of_asc_node": 85.6045,
        "meta_arg_of_pericenter": 269.084,
        "meta_mean_anomaly": 15.7076,
        "meta_ephemeris_type": 0,
        "meta_classification_type": "U",
        "meta_norad_cat_id": 47719,
        "meta_element_set_no": 999,
        "meta_rev_at_epoch": 3481,
        "meta_bstar": 0,
        "meta_mean_motion_dot": -1.2e-07,
        "meta_mean_motion_ddot": 0,
        "tle_line1": "1 47719U 21016A   25335.11228744 -.00000012  00000+0  00000+0 0  9997",
        "tle_line2": "2 47719  63.1756  85.6045 7197470 269.0840  15.7076  2.00613156 34816"
      },
      "geometry": {
        "type": "Point",
        "coordinates": [
          159.67543871581518,
          62.377676284629906
        ]
      }
    },
    {
      "type": "Feature",
      "properties": {
        "norad_id": 49008,
        "name": "FENGYUN 3E",
        "group": "weather",
        "lat": -41.103885671394316,
        "lon": 154.64468242124923,
        "alt_km": 832.1815905094345,
        "timestamp": "2025-12-07T18:50:16.368265+00:00",
        "meta_object_name": "FENGYUN 3E",
        "meta_object_id": "2021-062A",
        "meta_epoch": "2025-12-07T05:57:31.163904",
        "meta_mean_motion": 14.1987891,
        "meta_eccentricity": 6.091e-05,
        "meta_inclination": 98.7476,
        "meta_ra_of_asc_node": 341.8346,
        "meta_arg_of_pericenter": 300.7275,
        "meta_mean_anomaly": 59.3841,
        "meta_ephemeris_type": 0,
        "meta_classification_type": "U",
        "meta_norad_cat_id": 49008,
        "meta_element_set_no": 999,
        "meta_rev_at_epoch": 22934,
        "meta_bstar": 5.1633468e-05,
        "meta_mean_motion_dot": 6.6e-07,
        "meta_mean_motion_ddot": 0,
        "tle_line1": "1 49008U 21062A   25341.24827736  .00000066  00000+0  51633-4 0  9999",
        "tle_line2": "2 49008  98.7476 341.8346 0000609 300.7275  59.3841 14.19878910229340"
      },
      "geometry": {
        "type": "Point",
        "coordinates": [
          154.64468242124923,
          -41.103885671394316
        ]
      }
    },
    {
      "type": "Feature",
      "properties": {
        "norad_id": 51850,
        "name": "GOES 18",
        "group": "weather",
        "lat": -0.007506249750243451,
        "lon": -137.64252611745025,
        "alt_km": 35784.87014214645,
        "timestamp": "2025-12-07T18:50:16.368278+00:00",
        "meta_object_name": "GOES 18",
        "meta_object_id": "2022-021A",
        "meta_epoch": "2025-12-07T06:08:05.566272",
        "meta_mean_motion": 1.00272168,
        "meta_eccentricity": 8.931e-05,
        "meta_inclination": 0.0031,
        "meta_ra_of_asc_node": 52.1591,
        "meta_arg_of_pericenter": 244.233,
        "meta_mean_anomaly": 94.9144,
        "meta_ephemeris_type": 0,
        "meta_classification_type": "U",
        "meta_norad_cat_id": 51850,
        "meta_element_set_no": 999,
        "meta_rev_at_epoch": 466,
        "meta_bstar": 0,
        "meta_mean_motion_dot": 1.01e-06,
        "meta_mean_motion_ddot": 0,
        "tle_line1": "1 51850U 22021A   25341.25561998  .00000101  00000+0  00000+0 0  9996",
        "tle_line2": "2 51850   0.0031  52.1591 0000893 244.2330  94.9144  1.00272168  4660"
      },
      "geometry": {
        "type": "Point",
        "coordinates": [
          -137.64252611745025,
          -0.007506249750243451
        ]
      }
    },
    {
      "type": "Feature",
      "properties": {
        "norad_id": 54234,
        "name": "NOAA 21 (JPSS-2)",
        "group": "weather",
        "lat": -53.50834188653728,
        "lon": 86.14473637545395,
        "alt_km": 835.6560772973289,
        "timestamp": "2025-12-07T18:50:16.368291+00:00",
        "meta_object_name": "NOAA 21 (JPSS-2)",
        "meta_object_id": "2022-150A",
        "meta_epoch": "2025-12-07T05:53:44.252448",
        "meta_mean_motion": 14.19521911,
        "meta_eccentricity": 0.00024205,
        "meta_inclination": 98.7454,
        "meta_ra_of_asc_node": 277.6227,
        "meta_arg_of_pericenter": 48.5263,
        "meta_mean_anomaly": 311.612,
        "meta_ephemeris_type": 0,
        "meta_classification_type": "U",
        "meta_norad_cat_id": 54234,
        "meta_element_set_no": 999,
        "meta_rev_at_epoch": 15931,
        "meta_bstar": 0.00011889031,
        "meta_mean_motion_dot": 2.07e-06,
        "meta_mean_motion_ddot": 0,
        "tle_line1": "1 54234U 22150A   25341.24565107  .00000207  00000+0  11889-3 0  9991",
        "tle_line2": "2 54234  98.7454 277.6227 0002420  48.5263 311.6120 14.19521911159313"
      },
      "geometry": {
        "type": "Point",
        "coordinates": [
          86.14473637545395,
          -53.50834188653728
        ]
      }
    },
    {
      "type": "Feature",
      "properties": {
        "norad_id": 54743,
        "name": "METEOSAT-12 (MTG-I1)",
        "group": "weather",
        "lat": -0.3717332007431407,
        "lon": -0.8581034881588483,
        "alt_km": 35787.1587019283,
        "timestamp": "2025-12-07T18:50:16.368303+00:00",
        "meta_object_name": "METEOSAT-12 (MTG-I1)",
        "meta_object_id": "2022-170C",
        "meta_epoch": "2025-12-07T06:47:09.325248",
        "meta_mean_motion": 1.00274559,
        "meta_eccentricity": 0.00015238,
        "meta_inclination": 0.7237,
        "meta_ra_of_asc_node": 30.7092,
        "meta_arg_of_pericenter": 221.9179,
        "meta_mean_anomaly": 285.2229,
        "meta_ephemeris_type": 0,
        "meta_classification_type": "U",
        "meta_norad_cat_id": 54743,
        "meta_element_set_no": 999,
        "meta_rev_at_epoch": 1105,
        "meta_bstar": 0,
        "meta_mean_motion_dot": -2e-08,
        "meta_mean_motion_ddot": 0,
        "tle_line1": "1 54743U 22170C   25341.28274682 -.00000002  00000+0  00000+0 0  9990",
        "tle_line2": "2 54743   0.7237  30.7092 0001523 221.9179 285.2229  1.00274559 11057"
      },
      "geometry": {
        "type": "Point",
        "coordinates": [
          -0.8581034881588483,
          -0.3717332007431407
        ]
      }
    }
  ]
}